BEIDOU-3 M1             
1 43001U 17069A   26095.64396830 -.00000034  00000+0  00000+0 0  9998
2 43001  56.6311  65.4720 0012491 313.9589  45.9116  1.86231333 57256
BEIDOU-3 M2             
1 43002U 17069B   26095.58253767 -.00000034  00000+0  00000+0 0  9993
2 43002  56.6304  65.5098 0010140 334.4561  25.4672  1.86230776 57244
BEIDOU-3 M7             
1 43107U 18003A   26095.32407220 -.00000059  00000+0  00000+0 0  9992
2 43107  54.3931 304.8551 0005149  76.5286 283.5497  1.86232513 55998
BEIDOU-3 M8             
1 43108U 18003B   26092.58514063 -.00000065  00000+0  00000+0 0  9999
2 43108  54.3877 304.9330 0002485 292.7810  67.2205  1.86230868 55950
BEIDOU-3 M4             
1 43207U 18018A   26094.63832819 -.00000040  00000+0  00000+0 0  9998
2 43207  56.5893  65.5716 0007493 355.4871   4.4783  1.86231252 55376
BEIDOU-3 M3             
1 43208U 18018B   26095.24172707 -.00000036  00000+0  00000+0 0  9995
2 43208  56.5892  65.5556 0010164 324.5426  35.3627  1.86231247 55385
BEIDOU-3 M9             
1 43245U 18029A   26095.45917779 -.00000055  00000+0  00000+0 0  9998
2 43245  54.2599 302.4917 0001030  56.1300 303.8969  1.86228496 54541
BEIDOU-3 M10            
1 43246U 18029B   26094.85695269 -.00000059  00000+0  00000+0 0  9993
2 43246  54.2578 302.5395 0005130  31.3928 328.6559  1.86229111 54518
BEIDOU-2 IGSO-7         
1 43539U 18057A   26086.63100478 -.00000168  00000+0  00000+0 0  9990
2 43539  55.1838 163.7722 0101772 237.2605 124.1194  1.00275701 28316
BEIDOU-3 M5             
1 43581U 18062A   26092.39635532  .00000008  00000+0  00000+0 0  9999
2 43581  54.0850 184.8810 0003510 295.8623  64.1328  1.86224644 52221
BEIDOU-3 M6             
1 43582U 18062B   26093.33335537  .00000014  00000+0  00000+0 0  9994
2 43582  54.0846 184.8383 0005216  31.2890 328.7793  1.86227743 52245
BEIDOU-3 M12            
1 43602U 18067A   26089.51302426 -.00000026  00000+0  00000+0 0  9992
2 43602  54.1801 183.7084 0008139  37.0616 323.0089  1.86227710 51657
BEIDOU-3 M11            
1 43603U 18067B   26093.40660892  .00000015  00000+0  00000+0 0  9997
2 43603  54.1769 183.5400 0004642  26.6069 333.4575  1.86227234 51759
BEIDOU-3 M13            
1 43622U 18072A   26094.97289470 -.00000039  00000+0  00000+0 0  9993
2 43622  56.5630  65.0735 0009111 313.8269  46.0701  1.86231084 51292
BEIDOU-3 M14            
1 43623U 18072B   26095.37529750 -.00000036  00000+0  00000+0 0  9994
2 43623  56.5652  65.0544 0006896 335.0878  24.8517  1.86231179 51298
BEIDOU-3 M16            
1 43647U 18078A   26094.99481171 -.00000058  00000+0  00000+0 0  9991
2 43647  54.1568 302.5515 0008401  35.7547 324.3193  1.86232458 50795
BEIDOU-3 M15            
1 43648U 18078B   26094.05022924 -.00000062  00000+0  00000+0 0  9991
2 43648  54.1526 302.5850 0005403  45.0328 315.0307  1.86232221 50794
